{"type": "FeatureCollection", "features": [ {"type": "Feature", "properties": {"norad_id": 66888, "name": "STARLINK-35919", "group": "last-30-days", "lat": 52.96472397251981, "lon": 157.95960464973254, "alt_km": 297.7044472014022, "timestamp": "2025-12-15T04:01:19.181993+00:00", "meta": {"OBJECT_NAME": "STARLINK-35919", "OBJECT_ID": "2025-283L", "EPOCH": "2025-12-14T06:00:02.999808", "MEAN_MOTION": 15.91129806, "ECCENTRICITY": 8.539e-05, "INCLINATION": 53.1554, "RA_OF_ASC_NODE": 66.2538, "ARG_OF_PERICENTER": 86.7766, "MEAN_ANOMALY": 151.9875, "EPHEMERIS_TYPE": 0, "CLASSIFICATION_TYPE": "U", "NORAD_CAT_ID": 66888, "ELEMENT_SET_NO": 999, "REV_AT_EPOCH": 267, "BSTAR": -0.0040215893, "MEAN_MOTION_DOT": -0.01303926, "MEAN_MOTION_DDOT": 0.00049139436}, "tle": {"line1": "1 66888U 25283L   25348.25003472 -.01303926  49139-3 -40216-2 0  9991", "line2": "2 66888  53.1554  66.2538 0000853  86.7766 151.9875 15.91129806  2670"}}, "geometry": {"type": "Point", "coordinates": [157.95960464973254, 52.96472397251981]}}, {"type": "Feature", "properties": {"norad_id": 66889, "name": "STARLINK-35852", "group": "last-30-days", "lat": 52.630774356567294, "lon": 162.50569007206087, "alt_km": 297.6126055185223, "timestamp": "2025-12-15T04:01:19.182005+00:00", "meta": {"OBJECT_NAME": "STARLINK-35852", "OBJECT_ID": "2025-283M", "EPOCH": "2025-12-14T06:00:02.999808", "MEAN_MOTION": 15.91182634, "ECCENTRICITY": 9.205e-05, "INCLINATION": 53.1549, "RA_OF_ASC_NODE": 66.2481, "ARG_OF_PERICENTER": 80.1496, "MEAN_ANOMALY": 161.245, "EPHEMERIS_TYPE": 0, "CLASSIFICATION_TYPE": "U", "NORAD_CAT_ID": 66889, "ELEMENT_SET_NO": 999, "REV_AT_EPOCH": 267, "BSTAR": -0.0040542519, "MEAN_MOTION_DOT": -0.01317934, "MEAN_MOTION_DDOT": 0.00050130829}, "tle": {"line1": "1 66889U 25283M   25348.25003472 -.01317934  50131-3 -40543-2 0  9993", "line2": "2 66889  53.1549  66.2481 0000920  80.1496 161.2450 15.91182634  2676"}}, "geometry": {"type": "Point", "coordinates": [162.50569007206087, 52.630774356567294]}}, {"type": "Feature", "properties": {"norad_id": 66890, "name": "STARLINK-35885", "group": "last-30-days", "lat": 52.15624683390662, "lon": 166.73865249237005, "alt_km": 297.59907488579756, "timestamp": "2025-12-15T04:01:19.182015+00:00", "meta": {"OBJECT_NAME": "STARLINK-35885", "OBJECT_ID": "2025-283N", "EPOCH": "2025-12-14T06:00:02.999808", "MEAN_MOTION": 15.9123212, "ECCENTRICITY": 9.004e-05, "INCLINATION": 53.1551, "RA_OF_ASC_NODE": 66.2431, "ARG_OF_PERICENTER": 82.0711, "MEAN_ANOMALY": 161.8137, "EPHEMERIS_TYPE": 0, "CLASSIFICATION_TYPE": "U", "NORAD_CAT_ID": 66890, "ELEMENT_SET_NO": 999, "REV_AT_EPOCH": 267, "BSTAR": -0.0040758432, "MEAN_MOTION_DOT": -0.01328206, "MEAN_MOTION_DDOT": 0.00050869207}, "tle": {"line1": "1 66890U 25283N   25348.25003472 -.01328206  50869-3 -40758-2 0  9995", "line2": "2 66890  53.1551  66.2431 0000900  82.0711 161.8137 15.91232120  2679"}}, "geometry": {"type": "Point", "coordinates": [166.73865249237005, 52.15624683390662]}}, {"type": "Feature", "properties": {"norad_id": 66891, "name": "STARLINK-35855", "group": "last-30-days", "lat": 51.52347171564213, "lon": 170.92547114434703, "alt_km": 297.69659049332404, "timestamp": "2025-12-15T04:01:19.182025+00:00", "meta": {"OBJECT_NAME": "STARLINK-35855", "OBJECT_ID": "2025-283P", "EPOCH": "2025-12-14T06:00:02.999808", "MEAN_MOTION": 15.91290763, "ECCENTRICITY": 8.598e-05, "INCLINATION": 53.1552, "RA_OF_ASC_NODE": 66.2378, "ARG_OF_PERICENTER": 88.6343, "MEAN_ANOMALY": 157.8105, "EPHEMERIS_TYPE": 0, "CLASSIFICATION_TYPE": "U", "NORAD_CAT_ID": 66891, "ELEMENT_SET_NO": 999, "REV_AT_EPOCH": 267, "BSTAR": -0.0041630317, "MEAN_MOTION_DOT": -0.01360328, "MEAN_MOTION_DDOT": 0.00053164166}, "tle": {"line1": "1 66891U 25283P   25348.25003472 -.01360328  53164-3 -41630-2 0  9998", "line2": "2 66891  53.1552  66.2378 0000859  88.6343 157.8105 15.91290763  2674"}}, "geometry": {"type": "Point", "coordinates": [170.92547114434703, 51.52347171564213]}}, {"type": "Feature", "properties": {"norad_id": 66892, "name": "STARLINK-35883", "group": "last-30-days", "lat": 50.783639934266056, "lon": 174.80310690914587, "alt_km": 297.7824055421488, "timestamp": "2025-12-15T04:01:19.182035+00:00", "meta": {"OBJECT_NAME": "STARLINK-35883", "OBJECT_ID": "2025-283Q", "EPOCH": "2025-12-14T06:00:02.999808", "MEAN_MOTION": 15.91352904, "ECCENTRICITY": 9.235e-05, "INCLINATION": 53.155, "RA_OF_ASC_NODE": 66.2323, "ARG_OF_PERICENTER": 83.2882, "MEAN_ANOMALY": 165.6139, "EPHEMERIS_TYPE": 0, "CLASSIFICATION_TYPE": "U", "NORAD_CAT_ID": 66892, "ELEMENT_SET_NO": 999, "REV_AT_EPOCH": 261, "BSTAR": -0.0042840973, "MEAN_MOTION_DOT": -0.01403849, "MEAN_MOTION_DDOT": 0.00056341477}, "tle": {"line1": "1 66892U 25283Q   25348.25003472 -.01403849  56341-3 -42841-2 0  9990", "line2": "2 66892  53.1550  66.2323 0000923  83.2882 165.6139 15.91352904  2618"}}, "geometry": {"type": "Point", "coordinates": [174.80310690914587, 50.783639934266056]}}, {"type": "Feature", "properties": {"norad_id": 66893, "name": "STARLINK-36033", "group": "last-30-days", "lat": 49.955285223083905, "lon": 178.4064092633502, "alt_km": 297.8923238911202, "timestamp": "2025-12-15T04:01:19.182060+00:00", "meta": {"OBJECT_NAME": "STARLINK-36033", "OBJECT_ID": "2025-283R", "EPOCH": "2025-12-14T06:00:02.999808", "MEAN_MOTION": 15.91408885, "ECCENTRICITY": 9.8e-05, "INCLINATION": 53.1549, "RA_OF_ASC_NODE": 66.2276, "ARG_OF_PERICENTER": 79.5761, "MEAN_ANOMALY": 171.6902, "EPHEMERIS_TYPE": 0, "CLASSIFICATION_TYPE": "U", "NORAD_CAT_ID": 66893, "ELEMENT_SET_NO": 999, "REV_AT_EPOCH": 267, "BSTAR": -0.0043906374, "MEAN_MOTION_DOT": -0.01442443, "MEAN_MOTION_DDOT": 0.00059233455}, "tle": {"line1": "1 66893U 25283R   25348.25003472 -.01442443  59233-3 -43906-2 0  9990", "line2": "2 66893  53.1549  66.2276 0000980  79.5761 171.6902 15.91408885  2672"}}, "geometry": {"type": "Point", "coordinates": [178.4064092633502, 49.955285223083905]}}, {"type": "Feature", "properties": {"norad_id": 66894, "name": "STARLINK-35718", "group": "last-30-days", "lat": 48.781340910963756, "lon": -177.31281937262804, "alt_km": 298.1842788029644, "timestamp": "2025-12-15T04:01:19.182071+00:00", "meta": {"OBJECT_NAME": "STARLINK-35718", "OBJECT_ID": "2025-283S", "EPOCH": "2025-12-14T06:00:02.999808", "MEAN_MOTION": 15.91465065, "ECCENTRICITY": 8.646e-05, "INCLINATION": 53.1552, "RA_OF_ASC_NODE": 66.2216, "ARG_OF_PERICENTER": 83.3661, "MEAN_ANOMALY": 170.8691, "EPHEMERIS_TYPE": 0, "CLASSIFICATION_TYPE": "U", "NORAD_CAT_ID": 66894, "ELEMENT_SET_NO": 999, "REV_AT_EPOCH": 267, "BSTAR": -0.0045202252, "MEAN_MOTION_DOT": -0.01488719, "MEAN_MOTION_DDOT": 0.00062786369}, "tle": {"line1": "1 66894U 25283S   25348.25003472 -.01488719  62786-3 -45202-2 0  9995", "line2": "2 66894  53.1552  66.2216 0000864  83.3661 170.8691 15.91465065  2673"}}, "geometry": {"type": "Point", "coordinates": [-177.31281937262804, 48.781340910963756]}}, {"type": "Feature", "properties": {"norad_id": 66895, "name": "STARLINK-35971", "group": "last-30-days", "lat": 46.42511860624261, "lon": -170.46644293920914, "alt_km": 298.4795594079824, "timestamp": "2025-12-15T04:01:19.182084+00:00", "meta": {"OBJECT_NAME": "STARLINK-35971", "OBJECT_ID": "2025-283T", "EPOCH": "2025-12-14T06:00:02.999808", "MEAN_MOTION": 15.91550112, "ECCENTRICITY": 8.92e-05, "INCLINATION": 53.1545, "RA_OF_ASC_NODE": 66.2104, "ARG_OF_PERICENTER": 86.4871, "MEAN_ANOMALY": 172.7731, "EPHEMERIS_TYPE": 0, "CLASSIFICATION_TYPE": "U", "NORAD_CAT_ID": 66895, "ELEMENT_SET_NO": 999, "REV_AT_EPOCH": 267, "BSTAR": -0.0046393672, "MEAN_MOTION_DOT": -0.01534094, "MEAN_MOTION_DDOT": 0.00066386338}, "tle": {"line1": "1 66895U 25283T   25348.25003472 -.01534094  66386-3 -46394-2 0  9997", "line2": "2 66895  53.1545  66.2104 0000892  86.4871 172.7731 15.91550112  2674"}}, "geometry": {"type": "Point", "coordinates": [-170.46644293920914, 46.42511860624261]}}, {"type": "Feature", "properties": {"norad_id": 66896, "name": "STARLINK-35791", "group": "last-30-days", "lat": 47.59365464887537, "lon": -173.63725110186294, "alt_km": 298.4151580122516, "timestamp": "2025-12-15T04:01:19.182096+00:00", "meta": {"OBJECT_NAME": "STARLINK-35791", "OBJECT_ID": "2025-283U", "EPOCH": "2025-12-14T06:00:02.999808", "MEAN_MOTION": 15.91511696, "ECCENTRICITY": 7.871e-05, "INCLINATION": 53.1548, "RA_OF_ASC_NODE": 66.2154, "ARG_OF_PERICENTER": 82.5288, "MEAN_ANOMALY": 174.3564, "EPHEMERIS_TYPE": 0, "CLASSIFICATION_TYPE": "U", "NORAD_CAT_ID": 66896, "ELEMENT_SET_NO": 999, "REV_AT_EPOCH": 267, "BSTAR": -0.004598893, "MEAN_MOTION_DOT": -0.01517892, "MEAN_MOTION_DDOT": 0.00065084549}, "tle": {"line1": "1 66896U 25283U   25348.25003472 -.01517892  65085-3 -45989-2 0  9999", "line2": "2 66896  53.1548  66.2154 0000787  82.5288 174.3564 15.91511696  2671"}}, "geometry": {"type": "Point", "coordinates": [-173.63725110186294, 47.59365464887537]}}, {"type": "Feature", "properties": {"norad_id": 66897, "name": "STARLINK-36079", "group": "last-30-days", "lat": 44.97084002381435, "lon": -166.9726930699496, "alt_km": 298.72206249932606, "timestamp": "2025-12-15T04:01:19.182107+00:00", "meta": {"OBJECT_NAME": "STARLINK-36079", "OBJECT_ID": "2025-283V", "EPOCH": "2025-12-14T06:00:02.999808", "MEAN_MOTION": 15.91584386, "ECCENTRICITY": 8.065e-05, "INCLINATION": 53.1548, "RA_OF_ASC_NODE": 66.2051, "ARG_OF_PERICENTER": 84.4436, "MEAN_ANOMALY": 177.5746, "EPHEMERIS_TYPE": 0, "CLASSIFICATION_TYPE": "U", "NORAD_CAT_ID": 66897, "ELEMENT_SET_NO": 999, "REV_AT_EPOCH": 267, "BSTAR": -0.0046666315, "MEAN_MOTION_DOT": -0.01545681, "MEAN_MOTION_DDOT": 0.00067329607}, "tle": {"line1": "1 66897U 25283V   25348.25003472 -.01545681  67330-3 -46666-2 0  9995", "line2": "2 66897  53.1548  66.2051 0000806  84.4436 177.5746 15.91584386  2679"}}, "geometry": {"type": "Point", "coordinates": [-166.9726930699496, 44.97084002381435]}}]}